[{"OBJECT_NAME":"INTELSAT 902 (IS-902)","OBJECT_ID":"2001-039A","EPOCH":"2026-03-28T07:42:08.622432","MEAN_MOTION":1.00271147,"ECCENTRICITY":0.00046105,"INCLINATION":5.9136,"RA_OF_ASC_NODE":72.757,"ARG_OF_PERICENTER":294.8641,"MEAN_ANOMALY":243.5588,"EPHEMERIS_TYPE":0,"CLASSIFICATION_TYPE":"U","NORAD_CAT_ID":26900,"ELEMENT_SET_NO":999,"REV_AT_EPOCH":8988,"BSTAR":0,"MEAN_MOTION_DOT":-2.98e-6,"MEAN_MOTION_DDOT":0},{"OBJECT_NAME":"INTELSAT 904 (IS-904)","OBJECT_ID":"2002-007A","EPOCH":"2026-03-28T07:47:23.120160","MEAN_MOTION":1.00270225,"ECCENTRICITY":0.00070299,"INCLINATION":6.7195,"RA_OF_ASC_NODE":70.1411,"ARG_OF_PERICENTER":321.286,"MEAN_ANOMALY":239.6667,"EPHEMERIS_TYPE":0,"CLASSIFICATION_TYPE":"U","NORAD_CAT_ID":27380,"ELEMENT_SET_NO":999,"REV_AT_EPOCH":5095,"BSTAR":0,"MEAN_MOTION_DOT":-2.4e-6,"MEAN_MOTION_DDOT":0},{"OBJECT_NAME":"DIRECTV 5 (TEMPO 1)","OBJECT_ID":"2002-023A","EPOCH":"2026-03-28T12:33:03.161664","MEAN_MOTION":1.00271637,"ECCENTRICITY":0.00035098,"INCLINATION":4.6728,"RA_OF_ASC_NODE":76.2991,"ARG_OF_PERICENTER":292.3459,"MEAN_ANOMALY":255.4452,"EPHEMERIS_TYPE":0,"CLASSIFICATION_TYPE":"U","NORAD_CAT_ID":27426,"ELEMENT_SET_NO":999,"REV_AT_EPOCH":8731,"BSTAR":0,"MEAN_MOTION_DOT":-7.3e-7,"MEAN_MOTION_DDOT":0},{"OBJECT_NAME":"INTELSAT 905 (IS-905)","OBJECT_ID":"2002-027A","EPOCH":"2026-03-28T11:35:38.794560","MEAN_MOTION":1.00272363,"ECCENTRICITY":0.0003063,"INCLINATION":6.5524,"RA_OF_ASC_NODE":70.7577,"ARG_OF_PERICENTER":302.6328,"MEAN_ANOMALY":209.2168,"EPHEMERIS_TYPE":0,"CLASSIFICATION_TYPE":"U","NORAD_CAT_ID":27438,"ELEMENT_SET_NO":999,"REV_AT_EPOCH":5055,"BSTAR":0,"MEAN_MOTION_DOT":7.9e-7,"MEAN_MOTION_DDOT":0},{"OBJECT_NAME":"GALAXY 3C (G-3C)","OBJECT_ID":"2002-030A","EPOCH":"2026-03-28T08:02:38.698368","MEAN_MOTION":1.00270958,"ECCENTRICITY":0.00011989,"INCLINATION":3.5233,"RA_OF_ASC_NODE":79.0943,"ARG_OF_PERICENTER":26.0425,"MEAN_ANOMALY":106.4195,"EPHEMERIS_TYPE":0,"CLASSIFICATION_TYPE":"U","NORAD_CAT_ID":27445,"ELEMENT_SET_NO":999,"REV_AT_EPOCH":4568,"BSTAR":0,"MEAN_MOTION_DOT":-1.69e-6,"MEAN_MOTION_DDOT":0},{"OBJECT_NAME":"INTELSAT 906 (IS-906)","OBJECT_ID":"2002-041A","EPOCH":"2026-03-28T13:22:43.399200","MEAN_MOTION":1.0027139,"ECCENTRICITY":0.00032613,"INCLINATION":5.5983,"RA_OF_ASC_NODE":73.9004,"ARG_OF_PERICENTER":301.7789,"MEAN_ANOMALY":75.1296,"EPHEMERIS_TYPE":0,"CLASSIFICATION_TYPE":"U","NORAD_CAT_ID":27513,"ELEMENT_SET_NO":999,"REV_AT_EPOCH":8622,"BSTAR":0,"MEAN_MOTION_DOT":-2.0e-8,"MEAN_MOTION_DDOT":0},{"OBJECT_NAME":"GALAXY 13 (HORIZONS-1)","OBJECT_ID":"2003-044A","EPOCH":"2026-03-28T09:30:38.642976","MEAN_MOTION":1.00272011,"ECCENTRICITY":0.00021881,"INCLINATION":1.2095,"RA_OF_ASC_NODE":84.892,"ARG_OF_PERICENTER":284.4523,"MEAN_ANOMALY":169.1088,"EPHEMERIS_TYPE":0,"CLASSIFICATION_TYPE":"U","NORAD_CAT_ID":27954,"ELEMENT_SET_NO":999,"REV_AT_EPOCH":4576,"BSTAR":0,"MEAN_MOTION_DOT":1.14e-6,"MEAN_MOTION_DDOT":0},{"OBJECT_NAME":"INTELSAT 10-02","OBJECT_ID":"2004-022A","EPOCH":"2026-03-28T07:56:07.282176","MEAN_MOTION":1.00273444,"ECCENTRICITY":0.00013534,"INCLINATION":0.035,"RA_OF_ASC_NODE":62.5049,"ARG_OF_PERICENTER":355.0476,"MEAN_ANOMALY":246.1774,"EPHEMERIS_TYPE":0,"CLASSIFICATION_TYPE":"U","NORAD_CAT_ID":28358,"ELEMENT_SET_NO":999,"REV_AT_EPOCH":7974,"BSTAR":0,"MEAN_MOTION_DOT":-3.1e-7,"MEAN_MOTION_DDOT":0},{"OBJECT_NAME":"DIRECTV 8","OBJECT_ID":"2005-019A","EPOCH":"2026-03-28T10:55:38.648352","MEAN_MOTION":1.00270493,"ECCENTRICITY":0.00032457,"INCLINATION":0.0246,"RA_OF_ASC_NODE":177.3476,"ARG_OF_PERICENTER":199.2307,"MEAN_ANOMALY":214.16,"EPHEMERIS_TYPE":0,"CLASSIFICATION_TYPE":"U","NORAD_CAT_ID":28659,"ELEMENT_SET_NO":999,"REV_AT_EPOCH":7626,"BSTAR":0,"MEAN_MOTION_DOT":0,"MEAN_MOTION_DDOT":0},{"OBJECT_NAME":"GALAXY 28 (G-28)","OBJECT_ID":"2005-022A","EPOCH":"2026-03-28T06:05:55.349376","MEAN_MOTION":1.00272237,"ECCENTRICITY":0.0002296,"INCLINATION":3.0898,"RA_OF_ASC_NODE":79.9263,"ARG_OF_PERICENTER":287.2667,"MEAN_ANOMALY":242.8737,"EPHEMERIS_TYPE":0,"CLASSIFICATION_TYPE":"U","NORAD_CAT_ID":28702,"ELEMENT_SET_NO":999,"REV_AT_EPOCH":5116,"BSTAR":0,"MEAN_MOTION_DOT":-2.17e-6,"MEAN_MOTION_DDOT":0},{"OBJECT_NAME":"GALAXY 16 (G-16)","OBJECT_ID":"2006-023A","EPOCH":"2026-03-28T12:36:10.362816","MEAN_MOTION":1.00271878,"ECCENTRICITY":0.00026893,"INCLINATION":0.0156,"RA_OF_ASC_NODE":190.6014,"ARG_OF_PERICENTER":180.769,"MEAN_ANOMALY":264.6038,"EPHEMERIS_TYPE":0,"CLASSIFICATION_TYPE":"U","NORAD_CAT_ID":29236,"ELEMENT_SET_NO":999,"REV_AT_EPOCH":7216,"BSTAR":0,"MEAN_MOTION_DOT":-1.46e-6,"MEAN_MOTION_DDOT":0},{"OBJECT_NAME":"DIRECTV 9S","OBJECT_ID":"2006-043A","EPOCH":"2026-03-28T11:59:38.639328","MEAN_MOTION":1.00271606,"ECCENTRICITY":0.00034783,"INCLINATION":2.2132,"RA_OF_ASC_NODE":81.8584,"ARG_OF_PERICENTER":296.0898,"MEAN_ANOMALY":246.6772,"EPHEMERIS_TYPE":0,"CLASSIFICATION_TYPE":"U","NORAD_CAT_ID":29494,"ELEMENT_SET_NO":999,"REV_AT_EPOCH":5057,"BSTAR":0,"MEAN_MOTION_DOT":-1.31e-6,"MEAN_MOTION_DDOT":0},{"OBJECT_NAME":"GALAXY 17 (G-17)","OBJECT_ID":"2007-016B","EPOCH":"2026-03-28T12:40:09.980256","MEAN_MOTION":1.0027079,"ECCENTRICITY":0.00036724,"INCLINATION":2.7687,"RA_OF_ASC_NODE":80.8966,"ARG_OF_PERICENTER":296.6063,"MEAN_ANOMALY":273.4734,"EPHEMERIS_TYPE":0,"CLASSIFICATION_TYPE":"U","NORAD_CAT_ID":31307,"ELEMENT_SET_NO":999,"REV_AT_EPOCH":6899,"BSTAR":0,"MEAN_MOTION_DOT":-2.24e-6,"MEAN_MOTION_DDOT":0},{"OBJECT_NAME":"INTELSAT 11 (IS-11)","OBJECT_ID":"2007-044B","EPOCH":"2026-03-28T13:38:41.867232","MEAN_MOTION":0.99050303,"ECCENTRICITY":0.00036196,"INCLINATION":3.3562,"RA_OF_ASC_NODE":79.6313,"ARG_OF_PERICENTER":214.7761,"MEAN_ANOMALY":216.6231,"EPHEMERIS_TYPE":0,"CLASSIFICATION_TYPE":"U","NORAD_CAT_ID":32253,"ELEMENT_SET_NO":999,"REV_AT_EPOCH":6765,"BSTAR":0,"MEAN_MOTION_DOT":-2.3e-6,"MEAN_MOTION_DDOT":0},{"OBJECT_NAME":"HORIZONS-2","OBJECT_ID":"2007-063B","EPOCH":"2026-03-28T12:43:24.668832","MEAN_MOTION":1.00272382,"ECCENTRICITY":0.00026233,"INCLINATION":2.3947,"RA_OF_ASC_NODE":81.6073,"ARG_OF_PERICENTER":287.7083,"MEAN_ANOMALY":293.6791,"EPHEMERIS_TYPE":0,"CLASSIFICATION_TYPE":"U","NORAD_CAT_ID":32388,"ELEMENT_SET_NO":999,"REV_AT_EPOCH":6700,"BSTAR":0,"MEAN_MOTION_DOT":-2.71e-6,"MEAN_MOTION_DDOT":0},{"OBJECT_NAME":"DIRECTV 11","OBJECT_ID":"2008-013A","EPOCH":"2026-03-28T12:36:10.362816","MEAN_MOTION":1.00270968,"ECCENTRICITY":3.332e-5,"INCLINATION":0.0373,"RA_OF_ASC_NODE":29.5742,"ARG_OF_PERICENTER":282.1116,"MEAN_ANOMALY":324.091,"EPHEMERIS_TYPE":0,"CLASSIFICATION_TYPE":"U","NORAD_CAT_ID":32729,"ELEMENT_SET_NO":999,"REV_AT_EPOCH":4478,"BSTAR":0,"MEAN_MOTION_DOT":-1.45e-6,"MEAN_MOTION_DDOT":0},{"OBJECT_NAME":"GALAXY 18 (G-18)","OBJECT_ID":"2008-024A","EPOCH":"2026-03-28T12:29:18.520800","MEAN_MOTION":1.00272147,"ECCENTRICITY":0.00028825,"INCLINATION":0.0185,"RA_OF_ASC_NODE":114.6683,"ARG_OF_PERICENTER":254.0665,"MEAN_ANOMALY":241.5137,"EPHEMERIS_TYPE":0,"CLASSIFICATION_TYPE":"U","NORAD_CAT_ID":32951,"ELEMENT_SET_NO":999,"REV_AT_EPOCH":4504,"BSTAR":0,"MEAN_MOTION_DOT":6.0e-8,"MEAN_MOTION_DDOT":0}]
