INTELSAT 902 (IS-902)   
1 26900U 01039A   26087.32093313 -.00000298  00000+0  00000+0 0  9995
2 26900   5.9136  72.7570 0004610 294.8641 243.5588  1.00271147 89887
INTELSAT 904 (IS-904)   
1 27380U 02007A   26087.32457315 -.00000240  00000+0  00000+0 0  9997
2 27380   6.7195  70.1411 0007029 321.2860 239.6667  1.00270225 50951
DIRECTV 5 (TEMPO 1)     
1 27426U 02023A   26087.52295326 -.00000073  00000+0  00000+0 0  9994
2 27426   4.6728  76.2991 0003509 292.3459 255.4452  1.00271637 87318
INTELSAT 905 (IS-905)   
1 27438U 02027A   26087.48308790  .00000079  00000+0  00000+0 0  9991
2 27438   6.5524  70.7577 0003063 302.6328 209.2168  1.00272363 50554
GALAXY 3C (G-3C)        
1 27445U 02030A   26087.33517012 -.00000169  00000+0  00000+0 0  9997
2 27445   3.5233  79.0943 0001198  26.0425 106.4195  1.00270958 45681
INTELSAT 906 (IS-906)   
1 27513U 02041A   26087.55744675 -.00000002  00000+0  00000+0 0  9992
2 27513   5.5983  73.9004 0003261 301.7789  75.1296  1.00271390 86221
GALAXY 13 (HORIZONS-1)  
1 27954U 03044A   26087.39628059  .00000114  00000+0  00000+0 0  9997
2 27954   1.2095  84.8920 0002188 284.4523 169.1088  1.00272011 45763
INTELSAT 10-02          
1 28358U 04022A   26087.33063984 -.00000031  00000+0  00000+0 0  9996
2 28358   0.0350  62.5049 0001353 355.0476 246.1774  1.00273444 79747
DIRECTV 8               
1 28659U 05019A   26087.45530843  .00000000  00000+0  00000+0 0  9998
2 28659   0.0246 177.3476 0003245 199.2307 214.1600  1.00270493 76265
GALAXY 28 (G-28)        
1 28702U 05022A   26087.25411284 -.00000217  00000+0  00000+0 0  9997
2 28702   3.0898  79.9263 0002296 287.2667 242.8737  1.00272237 51162
GALAXY 16 (G-16)        
1 29236U 06023A   26087.52511994 -.00000146  00000+0  00000+0 0  9992
2 29236   0.0156 190.6014 0002689 180.7690 264.6038  1.00271878 72162
DIRECTV 9S              
1 29494U 06043A   26087.49975277 -.00000131  00000+0  00000+0 0  9998
2 29494   2.2132  81.8584 0003478 296.0898 246.6772  1.00271606 50572
GALAXY 17 (G-17)        
1 31307U 07016B   26087.52789329 -.00000224  00000+0  00000+0 0  9993
2 31307   2.7687  80.8966 0003672 296.6063 273.4734  1.00270790 68991
INTELSAT 11 (IS-11)     
1 32253U 07044B   26087.56854013 -.00000230  00000+0  00000+0 0  9999
2 32253   3.3562  79.6313 0003619 214.7761 216.6231  0.99050303 67656
HORIZONS-2              
1 32388U 07063B   26087.53014663 -.00000271  00000+0  00000+0 0  9990
2 32388   2.3947  81.6073 0002623 287.7083 293.6791  1.00272382 67009
DIRECTV 11              
1 32729U 08013A   26087.52511994 -.00000145  00000+0  00000+0 0  9993
2 32729   0.0373  29.5742 0000333 282.1116 324.0910  1.00270968 44782
GALAXY 18 (G-18)        
1 32951U 08024A   26087.52035325  .00000006  00000+0  00000+0 0  9996
2 32951   0.0185 114.6683 0002882 254.0665 241.5137  1.00272147 45043
